{"type": "FeatureCollection", "features": [ {"type": "Feature", "properties": {"norad_id": 45344, "name": "BEIDOU-3 G2 (C60)", "group": "gnss", "lat": 1.2907986079400482, "lon": 74.26165125651107, "alt_km": 35794.38250796918, "timestamp": "2025-12-17T17:50:19.494423+00:00", "meta": {"OBJECT_NAME": "BEIDOU-3 G2 (C60)", "OBJECT_ID": "2020-017A", "EPOCH": "2025-12-17T01:43:19.070400", "MEAN_MOTION": 1.00273108, "ECCENTRICITY": 0.00043554, "INCLINATION": 2.5054, "RA_OF_ASC_NODE": 43.9467, "ARG_OF_PERICENTER": 271.8341, "MEAN_ANOMALY": 236.0547, "EPHEMERIS_TYPE": 0, "CLASSIFICATION_TYPE": "U", "NORAD_CAT_ID": 45344, "ELEMENT_SET_NO": 999, "REV_AT_EPOCH": 2143, "BSTAR": 0, "MEAN_MOTION_DOT": -1.19e-06, "MEAN_MOTION_DDOT": 0}, "tle": {"line1": "1 45344U 20017A   25351.07174850 -.00000119  00000+0  00000+0 0  9998", "line2": "2 45344   2.5054  43.9467 0004355 271.8341 236.0547  1.00273108 21433"}}, "geometry": {"type": "Point", "coordinates": [74.26165125651107, 1.2907986079400482]}}, {"type": "Feature", "properties": {"norad_id": 45358, "name": "COSMOS 2545 (760)", "group": "gnss", "lat": 64.20353951864954, "lon": 57.420458792531996, "alt_km": 19150.032965861014, "timestamp": "2025-12-17T17:50:19.494435+00:00", "meta": {"OBJECT_NAME": "COSMOS 2545 (760)", "OBJECT_ID": "2020-018A", "EPOCH": "2025-12-16T05:06:52.711776", "MEAN_MOTION": 2.13102549, "ECCENTRICITY": 0.00116565, "INCLINATION": 64.4672, "RA_OF_ASC_NODE": 318.8472, "ARG_OF_PERICENTER": 249.26, "MEAN_ANOMALY": 110.6088, "EPHEMERIS_TYPE": 0, "CLASSIFICATION_TYPE": "U", "NORAD_CAT_ID": 45358, "ELEMENT_SET_NO": 999, "REV_AT_EPOCH": 4476, "BSTAR": 0, "MEAN_MOTION_DOT": -7e-07, "MEAN_MOTION_DDOT": 0}, "tle": {"line1": "1 45358U 20018A   25350.21311009 -.00000070  00000+0  00000+0 0  9994", "line2": "2 45358  64.4672 318.8472 0011656 249.2600 110.6088  2.13102549 44763"}}, "geometry": {"type": "Point", "coordinates": [57.420458792531996, 64.20353951864954]}}, {"type": "Feature", "properties": {"norad_id": 45807, "name": "BEIDOU-3 G3 (C61)", "group": "gnss", "lat": 1.2618789031334896, "lon": 104.82427188554327, "alt_km": 35785.49743446381, "timestamp": "2025-12-17T17:50:19.494454+00:00", "meta": {"OBJECT_NAME": "BEIDOU-3 G3 (C61)", "OBJECT_ID": "2020-040A", "EPOCH": "2025-12-17T07:00:14.827392", "MEAN_MOTION": 1.00272037, "ECCENTRICITY": 0.00063789, "INCLINATION": 2.002, "RA_OF_ASC_NODE": 66.6244, "ARG_OF_PERICENTER": 308.8404, "MEAN_ANOMALY": 286.3488, "EPHEMERIS_TYPE": 0, "CLASSIFICATION_TYPE": "U", "NORAD_CAT_ID": 45807, "ELEMENT_SET_NO": 999, "REV_AT_EPOCH": 2024, "BSTAR": 0, "MEAN_MOTION_DOT": -3.31e-06, "MEAN_MOTION_DDOT": 0}, "tle": {"line1": "1 45807U 20040A   25351.29183828 -.00000331  00000+0  00000+0 0  9993", "line2": "2 45807   2.0020  66.6244 0006378 308.8404 286.3488  1.00272037 20248"}}, "geometry": {"type": "Point", "coordinates": [104.82427188554327, 1.2618789031334896]}}, {"type": "Feature", "properties": {"norad_id": 45854, "name": "GPS BIII-3  (PRN 23)", "group": "gnss", "lat": -2.116619057188263, "lon": 34.611774179929036, "alt_km": 20327.314002185096, "timestamp": "2025-12-17T17:50:19.494466+00:00", "meta": {"OBJECT_NAME": "GPS BIII-3  (PRN 23)", "OBJECT_ID": "2020-041A", "EPOCH": "2025-12-17T06:02:11.568192", "MEAN_MOTION": 2.00562016, "ECCENTRICITY": 0.00605926, "INCLINATION": 56.5499, "RA_OF_ASC_NODE": 36.0099, "ARG_OF_PERICENTER": 203.5861, "MEAN_ANOMALY": 158.5614, "EPHEMERIS_TYPE": 0, "CLASSIFICATION_TYPE": "U", "NORAD_CAT_ID": 45854, "ELEMENT_SET_NO": 999, "REV_AT_EPOCH": 4039, "BSTAR": 0, "MEAN_MOTION_DOT": -7.7e-07, "MEAN_MOTION_DDOT": 0}, "tle": {"line1": "1 45854U 20041A   25351.25152278 -.00000077  00000+0  00000+0 0  9994", "line2": "2 45854  56.5499  36.0099 0060592 203.5861 158.5614  2.00562016 40398"}}, "geometry": {"type": "Point", "coordinates": [34.611774179929036, -2.116619057188263]}}, {"type": "Feature", "properties": {"norad_id": 46114, "name": "GALAXY 30 (WAAS/PRN 135)", "group": "gnss", "lat": -0.03213617386607304, "lon": -130.82448979389315, "alt_km": 35778.774788191295, "timestamp": "2025-12-17T17:50:19.494477+00:00", "meta": {"OBJECT_NAME": "GALAXY 30 (WAAS/PRN 135)", "OBJECT_ID": "2020-056C", "EPOCH": "2025-12-16T10:32:38.625216", "MEAN_MOTION": 1.00271809, "ECCENTRICITY": 0.00020504, "INCLINATION": 0.0174, "RA_OF_ASC_NODE": 8.9673, "ARG_OF_PERICENTER": 254.0657, "MEAN_ANOMALY": 215.4609, "EPHEMERIS_TYPE": 0, "CLASSIFICATION_TYPE": "U", "NORAD_CAT_ID": 46114, "ELEMENT_SET_NO": 999, "REV_AT_EPOCH": 1946, "BSTAR": 0, "MEAN_MOTION_DOT": 6e-07, "MEAN_MOTION_DDOT": 0}, "tle": {"line1": "1 46114U 20056C   25350.43933594  .00000060  00000+0  00000+0 0  9998", "line2": "2 46114   0.0174   8.9673 0002050 254.0657 215.4609  1.00271809 19464"}}, "geometry": {"type": "Point", "coordinates": [-130.82448979389315, -0.03213617386607304]}}, {"type": "Feature", "properties": {"norad_id": 46805, "name": "COSMOS 2547 (705K)", "group": "gnss", "lat": -44.11231437603761, "lon": 171.09183682812696, "alt_km": 19132.913579239146, "timestamp": "2025-12-17T17:50:19.494489+00:00", "meta": {"OBJECT_NAME": "COSMOS 2547 (705K)", "OBJECT_ID": "2020-075A", "EPOCH": "2025-12-16T20:53:31.957728", "MEAN_MOTION": 2.13100128, "ECCENTRICITY": 0.00062107, "INCLINATION": 64.5961, "RA_OF_ASC_NODE": 198.5585, "ARG_OF_PERICENTER": 228.4879, "MEAN_ANOMALY": 131.5408, "EPHEMERIS_TYPE": 0, "CLASSIFICATION_TYPE": "U", "NORAD_CAT_ID": 46805, "ELEMENT_SET_NO": 999, "REV_AT_EPOCH": 4002, "BSTAR": 0, "MEAN_MOTION_DOT": 1.11e-06, "MEAN_MOTION_DDOT": 0}, "tle": {"line1": "1 46805U 20075A   25350.87050877  .00000111  00000+0  00000+0 0  9995", "line2": "2 46805  64.5961 198.5585 0006210 228.4879 131.5408  2.13100128 40022"}}, "geometry": {"type": "Point", "coordinates": [171.09183682812696, -44.11231437603761]}}, {"type": "Feature", "properties": {"norad_id": 46826, "name": "GPS BIII-4  (PRN 14)", "group": "gnss", "lat": -24.74381706189848, "lon": -161.40585057634405, "alt_km": 20284.16786661868, "timestamp": "2025-12-17T17:50:19.494499+00:00", "meta": {"OBJECT_NAME": "GPS BIII-4  (PRN 14)", "OBJECT_ID": "2020-078A", "EPOCH": "2025-12-16T01:06:13.902336", "MEAN_MOTION": 2.00566891, "ECCENTRICITY": 0.00647559, "INCLINATION": 54.0145, "RA_OF_ASC_NODE": 218.2068, "ARG_OF_PERICENTER": 203.3837, "MEAN_ANOMALY": 339.3927, "EPHEMERIS_TYPE": 0, "CLASSIFICATION_TYPE": "U", "NORAD_CAT_ID": 46826, "ELEMENT_SET_NO": 999, "REV_AT_EPOCH": 3783, "BSTAR": 0, "MEAN_MOTION_DOT": 6.7e-07, "MEAN_MOTION_DDOT": 0}, "tle": {"line1": "1 46826U 20078A   25350.04599424  .00000067  00000+0  00000+0 0  9996", "line2": "2 46826  54.0145 218.2068 0064755 203.3837 339.3927  2.00566891 37831"}}, "geometry": {"type": "Point", "coordinates": [-161.40585057634405, -24.74381706189848]}}, {"type": "Feature", "properties": {"norad_id": 48859, "name": "GPS BIII-5  (PRN 11)", "group": "gnss", "lat": 21.76957006113452, "lon": 143.6535577543709, "alt_km": 20169.640489200283, "timestamp": "2025-12-17T17:50:19.494511+00:00", "meta": {"OBJECT_NAME": "GPS BIII-5  (PRN 11)", "OBJECT_ID": "2021-054A", "EPOCH": "2025-12-08T04:14:32.423424", "MEAN_MOTION": 2.00553627, "ECCENTRICITY": 0.0024678, "INCLINATION": 55.2581, "RA_OF_ASC_NODE": 340.1367, "ARG_OF_PERICENTER": 233.3994, "MEAN_ANOMALY": 212.8593, "EPHEMERIS_TYPE": 0, "CLASSIFICATION_TYPE": "U", "NORAD_CAT_ID": 48859, "ELEMENT_SET_NO": 999, "REV_AT_EPOCH": 3292, "BSTAR": 0, "MEAN_MOTION_DOT": -8.6e-07, "MEAN_MOTION_DDOT": 0}, "tle": {"line1": "1 48859U 21054A   25342.17676416 -.00000086  00000+0  00000+0 0  9993", "line2": "2 48859  55.2581 340.1367 0024678 233.3994 212.8593  2.00553627 32922"}}, "geometry": {"type": "Point", "coordinates": [143.6535577543709, 21.76957006113452]}}, {"type": "Feature", "properties": {"norad_id": 49336, "name": "QZS-1R (QZSS/PRN 196)", "group": "gnss", "lat": 28.453780261132344, "lon": 127.99360714324668, "alt_km": 38145.65109894939, "timestamp": "2025-12-17T17:50:19.494522+00:00", "meta": {"OBJECT_NAME": "QZS-1R (QZSS/PRN 196)", "OBJECT_ID": "2021-096A", "EPOCH": "2025-12-16T14:02:25.911168", "MEAN_MOTION": 1.00256555, "ECCENTRICITY": 0.075615, "INCLINATION": 37.0853, "RA_OF_ASC_NODE": 82.3023, "ARG_OF_PERICENTER": 271.3992, "MEAN_ANOMALY": 76.9264, "EPHEMERIS_TYPE": 0, "CLASSIFICATION_TYPE": "U", "NORAD_CAT_ID": 49336, "ELEMENT_SET_NO": 999, "REV_AT_EPOCH": 1517, "BSTAR": 0, "MEAN_MOTION_DOT": -2.79e-06, "MEAN_MOTION_DDOT": 0}, "tle": {"line1": "1 49336U 21096A   25350.58502212 -.00000279  00000+0  00000+0 0  9990", "line2": "2 49336  37.0853  82.3023 0756150 271.3992  76.9264  1.00256555 15175"}}, "geometry": {"type": "Point", "coordinates": [127.99360714324668, 28.453780261132344]}}, {"type": "Feature", "properties": {"norad_id": 49809, "name": "GSAT0223 (GALILEO 27)", "group": "gnss", "lat": 3.233290496183551, "lon": -11.339830422145136, "alt_km": 23226.22901786225, "timestamp": "2025-12-17T17:50:19.494538+00:00", "meta": {"OBJECT_NAME": "GSAT0223 (GALILEO 27)", "OBJECT_ID": "2021-116A", "EPOCH": "2025-12-16T20:22:21.643104", "MEAN_MOTION": 1.70476101, "ECCENTRICITY": 0.00044272, "INCLINATION": 57.2185, "RA_OF_ASC_NODE": 346.6017, "ARG_OF_PERICENTER": 254.1798, "MEAN_ANOMALY": 280.7094, "EPHEMERIS_TYPE": 0, "CLASSIFICATION_TYPE": "U", "NORAD_CAT_ID": 49809, "ELEMENT_SET_NO": 999, "REV_AT_EPOCH": 2507, "BSTAR": 0, "MEAN_MOTION_DOT": -7.9e-07, "MEAN_MOTION_DDOT": 0}, "tle": {"line1": "1 49809U 21116A   25350.84886161 -.00000079  00000+0  00000+0 0  9993", "line2": "2 49809  57.2185 346.6017 0004427 254.1798 280.7094  1.70476101 25071"}}, "geometry": {"type": "Point", "coordinates": [-11.339830422145136, 3.233290496183551]}}]}